IRIDIUM 150             
1 43257U 18030J   25032.90786470  .00000763  00000+0  26537-3 0  9997
2 43257  86.4010 139.6228 0002302  94.8457 265.3002 14.34216163358473
IRIDIUM 143             
1 43258U 18030K   25032.81906812  .00000812  00000+0  28271-3 0  9994
2 43258  86.4015 139.7330 0002608  95.6561 264.4932 14.34216485358376
IRIDIUM 161             
1 43478U 18047C   25032.66966732  .00000791  00000+0  22924-3 0  9991
2 43478  86.4490 297.6281 0002113  83.4981 276.6461 14.43283291352946
IRIDIUM 152             
1 43479U 18047D   25033.21039660  .00000743  00000+0  25814-3 0  9993
2 43479  86.3968 297.2617 0002058  85.6725 274.4706 14.34216932350835
IRIDIUM 147             
1 43480U 18047E   25032.72835795  .00000770  00000+0  26795-3 0  9992
2 43480  86.3970 297.4597 0001912  77.7174 282.4236 14.34216214350758
IRIDIUM 110             
1 43481U 18047F   25033.22308183  .00000703  00000+0  24392-3 0  9992
2 43481  86.3971 297.3314 0001706  91.2026 268.9365 14.34216864350814
IRIDIUM 162             
1 43482U 18047G   25032.73270057  .00000600  00000+0  17254-3 0  9991
2 43482  86.4495 297.4989 0002016  87.8044 272.3388 14.43269817352948
IRIDIUM 160             
1 43569U 18061A   25033.16891751  .00000599  00000+0  20667-3 0  9990
2 43569  86.3935 265.7080 0001837  86.2986 273.8420 14.34218676341702
